NORAD_CAT_ID,OBJECT_NAME,OBJECT_TYPE,EPOCH,MEAN_MOTION,ECCENTRICITY,INCLINATION,RA_OF_ASC_NODE,ARG_OF_PERICENTER,MEAN_ANOMALY,BSTAR,MEAN_MOTION_DOT,MEAN_MOTION_DDOT,TLE_LINE0,TLE_LINE1,TLE_LINE2,SEMIMAJOR_AXIS,PERIOD,APOGEE,PERIGEE,DECAYED
53803.0,STARLINK-4727,PAYLOAD,2023-01-06 22:00:00,15.25817712,0.0001616,53.2171,47.2186,38.0402,295.3767,-0.04827,-0.01154077,0.0,0 STARLINK-4727,1 53803U 22111AG  23006.91667824 -.01154077  00000-0 -48270-1 0  9999,2 53803  53.2171  47.2186 0001616  38.0402 295.3767 15.25817712  1301,6866.468000000002,94.376,489.443,487.223,0.0
53803.0,STARLINK-4727,PAYLOAD,2023-01-07 06:00:00,15.25019535,0.0001631999999999,53.2169,45.6838,41.5637,323.341,-0.050478,-0.01176227,0.0,0 STARLINK-4727,1 53803U 22111AG  23007.25001157 -.01176227  00000-0 -50478-1 0  9992,2 53803  53.2169  45.6838 0001632  41.5637 323.3410 15.25019535 18471,6868.864000000001,94.425,491.85,489.608,0.0
53803.0,STARLINK-4727,PAYLOAD,2023-01-08 00:00:00,15.23170274,0.0001781,53.2171,42.2363,42.8808,119.3226,-0.052115,-0.01150923,0.0,0 STARLINK-4727,1 53803U 22111AG  23008.00001157 -.01150923  00000-0 -52115-1 0  9991,2 53803  53.2171  42.2363 0001781  42.8808 119.3226 15.23170274  1307,6874.422,94.54,497.512,495.0630000000001,0.0
53803.0,STARLINK-4727,PAYLOAD,2023-01-08 14:00:01,15.21751998,0.0001739,53.2167,39.5643,45.4936,75.6187,-0.054661,-0.01156824,0.0,0 STARLINK-4727,1 53803U 22111AG  23008.58334491 -.01156824  00000-0 -54661-1 0  9998,2 53803  53.2167  39.5643 0001739  45.4936  75.6187 15.21751998 18681,6878.693,94.628,501.754,499.362,0.0
53803.0,STARLINK-4727,PAYLOAD,2023-01-08 22:00:00,15.20934935,0.0001774,53.217,38.0371,40.7104,107.0111,-0.055803,-0.01153152,0.0,0 STARLINK-4727,1 53803U 22111AG  23008.91667824 -.01153152  00000-0 -55803-1 0  9994,2 53803  53.2170  38.0371 0001774  40.7104 107.0111 15.20934935  1302,6881.156,94.679,504.242,501.801,0.0
53803.0,STARLINK-4727,PAYLOAD,2023-01-09 14:00:01,15.19306006,0.0001751999999999,53.2167,34.9934,49.3663,148.6333,-0.058368,-0.01150148,0.0,0 STARLINK-4727,1 53803U 22111AG  23009.58334491 -.01150148  00000-0 -58368-1 0  9990,2 53803  53.2167  34.9934 0001752  49.3663 148.6333 15.19306006  1306,6886.074000000001,94.78,509.145,506.732,0.0
53803.0,STARLINK-4727,PAYLOAD,2023-01-09 18:00:00,15.18898894,0.00015,53.2174,34.232,44.8057,345.1538,-0.059123,-0.01151145,0.0,0 STARLINK-4727,1 53803U 22111AG  23009.75001157 -.01151145  00000-0 -59123-1 0  9997,2 53803  53.2174  34.2320 0001500  44.8057 345.1538 15.18898894 18853,6887.304,94.806,510.202,508.136,0.0
53803.0,STARLINK-4727,PAYLOAD,2023-01-10 00:00:00,15.1828555,0.0001571999999999,53.2174,33.0918,43.591,273.8494,-0.059902,-0.01146135,0.0,0 STARLINK-4727,1 53803U 22111AG  23010.00001157 -.01146135  00000-0 -59902-1 0  9995,2 53803  53.2174  33.0918 0001572  43.5910 273.8494 15.18285550  1305,6889.1590000000015,94.844,512.107,509.941,0.0
53803.0,STARLINK-4727,PAYLOAD,2023-01-10 14:00:01,15.16874913,0.000173,53.2166,30.4397,46.0127,220.0663,-0.063482,-0.01164591,0.0,0 STARLINK-4727,1 53803U 22111AG  23010.58334491 -.01164591  00000-0 -63482-1 0  9992,2 53803  53.2166  30.4397 0001730  46.0127 220.0663 15.16874913 18981,6893.429,94.932,516.487,514.102,0.0
53803.0,STARLINK-4727,PAYLOAD,2023-01-10 22:00:00,15.16049321,0.000161,53.2174,28.9239,43.6359,243.1887,-0.06398,-0.01147613,0.0,0 STARLINK-4727,1 53803U 22111AG  23010.91667824 -.01147613  00000-0 -63980-1 0  9997,2 53803  53.2174  28.9239 0001610  43.6359 243.1887 15.16049321  1303,6895.932,94.984,518.9069999999998,516.687,0.0
53803.0,STARLINK-4727,PAYLOAD,2023-01-11 14:00:01,15.14424074,0.000153,53.2172,25.9029,45.1902,280.1771,-0.067246,-0.01151239,0.0,0 STARLINK-4727,1 53803U 22111AG  23011.58334491 -.01151239  00000-0 -67246-1 0  9990,2 53803  53.2172  25.9029 0001530  45.1902 280.1771 15.14424074  1300,6900.865,95.086,523.785,521.674,0.0
53803.0,STARLINK-4727,PAYLOAD,2023-01-11 16:00:00,15.14218349,0.0001629,53.2173,25.525,43.6228,16.2892,-0.067448,-0.01148247,0.0,0 STARLINK-4727,1 53803U 22111AG  23011.66667824 -.01148247  00000-0 -67448-1 0  9997,2 53803  53.2173  25.5250 0001629  43.6228  16.2892 15.14218349 19145,6901.49,95.099,524.479,522.23,0.0
53803.0,STARLINK-4727,PAYLOAD,2023-01-11 22:00:00,15.13605242,0.0001440999999999,53.2173,24.393,48.1623,295.0135,-0.068324,-0.01143501,0.0,0 STARLINK-4727,1 53803U 22111AG  23011.91667824 -.01143501  00000-0 -68324-1 0  9997,2 53803  53.2173  24.3930 0001441  48.1623 295.0135 15.13605242  1305,6903.353,95.137,526.2130000000002,524.2230000000002,0.0
53803.0,STARLINK-4727,PAYLOAD,2023-01-12 22:00:00,15.11163884,0.0001656,53.2175,19.8792,40.1254,350.5997,-0.073157,-0.01143329,0.0,0 STARLINK-4727,1 53803U 22111AG  23012.91667824 -.01143329  00000-0 -73157-1 0  9996,2 53803  53.2175  19.8792 0001656  40.1254 350.5997 15.11163884 19336,6910.786,95.291,533.7959999999998,531.507,0.0
53803.0,STARLINK-4727,PAYLOAD,2023-01-13 14:00:01,15.0941713,0.0001324,53.2147,16.8807,77.4228,340.1613,-0.051466,-0.00779078,0.0,0 STARLINK-4727,1 53803U 22111AG  23013.58334491 -.00779078  00000-0 -51466-1 0  9995,2 53803  53.2147  16.8807 0001324  77.4228 340.1613 15.09417130  1306,6916.116999999999,95.401,538.898,537.066,0.0
53803.0,STARLINK-4727,PAYLOAD,2023-01-13 22:00:00,15.08808165,0.0001414,53.215,15.3822,89.4281,340.1005,0.0025733,0.00040868,0.0,0 STARLINK-4727,1 53803U 22111AG  23013.91667824  .00040868  00000-0  25733-2 0  9996,2 53803  53.2150  15.3822 0001414  89.4281 340.1005 15.08808165 19498,6917.978,95.44,540.821,538.864,0.0
53803.0,STARLINK-4727,PAYLOAD,2023-01-14 16:00:00,15.08824696,0.000125,53.2148,12.0162,90.7259,94.8599,-0.00023219,-3.98e-05,0.0,0 STARLINK-4727,1 53803U 22111AG  23014.66667824 -.00003980  00000-0 -23219-3 0  9993,2 53803  53.2148  12.0162 0001250  90.7259  94.8599 15.08824696 19605,6917.927,95.439,540.6569999999999,538.927,0.0
53803.0,STARLINK-4727,PAYLOAD,2023-01-15 06:00:00,15.08884893,0.0001264999999999,53.2146,9.3985,94.0421,21.8148,-0.005501,-0.00086887,0.0,0 STARLINK-4727,1 53803U 22111AG  23015.25001157 -.00086887  00000-0 -55010-2 0  9990,2 53803  53.2146   9.3985 0001265  94.0421  21.8148 15.08884893 19693,6917.743,95.435,540.4830000000001,538.7330000000001,0.0
53803.0,STARLINK-4727,PAYLOAD,2023-01-15 14:00:01,15.08837107,0.0001112,53.2144,7.9016,99.9471,27.5314,0.0012144999999999,0.00019092,0.0,0 STARLINK-4727,1 53803U 22111AG  23015.58334491  .00019092  00000-0  12145-2 0  9990,2 53803  53.2144   7.9016 0001112  99.9471  27.5314 15.08837107 19740,6917.889,95.438,540.524,538.985,0.0
53803.0,STARLINK-4727,PAYLOAD,2023-01-15 22:00:01,15.08843505,0.0001222,53.2146,6.4038,107.6397,31.5027,0.0047772,0.00076575,0.0,0 STARLINK-4727,1 53803U 22111AG  23015.91668981  .00076575  00000-0  47772-2 0  9994,2 53803  53.2146   6.4038 0001222 107.6397  31.5027 15.08843505  1304,6917.87,95.437,540.58,538.889,0.0
53803.0,STARLINK-4727,PAYLOAD,2023-01-16 14:00:01,15.08777578,0.0001189999999999,53.2149,3.412,68.5589,93.7641,0.00066839,0.00010347,0.0,0 STARLINK-4727,1 53803U 22111AG  23016.58334491  .00010347  00000-0  66839-3 0  9995,2 53803  53.2149   3.4120 0001190  68.5589  93.7641 15.08777578 19899,6918.071,95.442,540.759,539.113,0.0
53803.0,STARLINK-4727,PAYLOAD,2023-01-16 22:00:00,15.08778809,0.0001189,53.2151,1.9145,79.80199999999999,94.0427,0.0039196,0.00062541,0.0,0 STARLINK-4727,1 53803U 22111AG  23016.91667824  .00062541  00000-0  39196-2 0  9999,2 53803  53.2151   1.9145 0001189  79.8020  94.0427 15.08778809  1306,6918.066999999999,95.441,540.755,539.11,0.0
53803.0,STARLINK-4727,PAYLOAD,2023-01-17 02:00:01,15.08820922,0.0001233,53.2152,1.1672,76.6604,282.947,8.8014e-05,1.112e-05,0.0,0 STARLINK-4727,1 53803U 22111AG  23017.08334491  .00001112  00000-0  88014-4 0  9991,2 53803  53.2152   1.1672 0001233  76.6604 282.9470 15.08820922 19968,6917.939,95.439,540.6569999999999,538.951,0.0
53803.0,STARLINK-4727,PAYLOAD,2023-01-17 14:00:01,15.08842821,0.0001229,53.2152,358.9228,73.7112,123.2494,0.00010255,1.345e-05,0.0,0 STARLINK-4727,1 53803U 22111AG  23017.58334491  .00001345  00000-0  10255-3 0  9995,2 53803  53.2152 358.9228 0001229  73.7112 123.2494 15.08842821  1309,6917.871999999999,95.437,540.587,538.887,0.0
53803.0,STARLINK-4727,PAYLOAD,2023-01-17 22:00:00,15.08841258,0.0001235,53.2155,357.4252,84.9516,123.6013,0.0031313,0.00049901,0.0,0 STARLINK-4727,1 53803U 22111AG  23017.91667824  .00049901  00000-0  31313-2 0  9998,2 53803  53.2155 357.4252 0001235  84.9516 123.6013 15.08841258  1306,6917.877,95.437,540.596,538.887,0.0
53803.0,STARLINK-4727,PAYLOAD,2023-01-17 22:40:09,15.0883598,0.0001038,53.2153,357.2996,80.8513,279.2596,0.00019213,2.771e-05,0.0,0 STARLINK-4727,1 53803U 22111AG  23017.94455965  .00002771  00000-0  19213-3 0  9992,2 53803  53.2153 357.2996 0001038  80.8513 279.2596 15.08835980 20096,6917.893,95.438,540.476,539.04,0.0
53803.0,STARLINK-4727,PAYLOAD,2023-01-18 08:12:28,15.08877322,0.0001214,53.2154,355.5156,74.9316,285.181,0.0019557,0.00031006,0.0,0 STARLINK-4727,1 53803U 22111AG  23018.34199694  .00031006  00000-0  19557-2 0  9994,2 53803  53.2154 355.5156 0001214  74.9316 285.1810 15.08877322 20155,6917.766,95.435,540.471,538.7909999999999,0.0
53803.0,STARLINK-4727,PAYLOAD,2023-01-18 09:47:51,15.088906,0.0001262,53.2156,355.2192,76.6903,283.423,0.0026263,0.00041816,0.0,0 STARLINK-4727,1 53803U 22111AG  23018.40823515  .00041816  00000-0  26263-2 0  9999,2 53803  53.2156 355.2192 0001262  76.6903 283.4230 15.08890600 20979,6917.726,95.434,540.464,538.7180000000001,0.0
53803.0,STARLINK-4727,PAYLOAD,2023-01-19 03:17:05,15.08874383,0.0001186,53.216,351.9479,95.7804,264.3323,0.001548,0.00024457,0.0,0 STARLINK-4727,1 53803U 22111AG  23019.13686854  .00024457  00000-0  15480-2 0  9994,2 53803  53.2160 351.9479 0001186  95.7804 264.3323 15.08874383 20276,6917.775,95.435,540.461,538.82,0.0
